STARLINK-34230
1 64137U 25111Q   26061.19305159  .00126994  00000+0  26965-2 0  9999
2 64137  42.9941 114.4138 0012336  54.0302 306.1698 15.43782761 44389
